start=new Date('2022-08-22T00:00:00.000Z').valueOf();
sats=[{"RCS_SIZE":"LARGE","DECAY_DATE":null,"TLE_LINE1":"1 52657U 22053B   22233.91667824  .00028907  00000-0  18275-2 0  9993","APOAPSIS":"540.875","MEAN_ANOMALY":"326.7414","PERIOD":"95.438","OBJECT_ID":"2022-053B","FILE":"3542671","OBJECT_NAME":"STARLINK-4084","CLASSIFICATION_TYPE":"U","MEAN_MOTION_DOT":"0.00028907","LAUNCH_DATE":"2022-05-18","ECCENTRICITY":"0.00015780","GP_ID":"210694127","SEMIMAJOR_AXIS":"6917.918","INCLINATION":"53.2147","REV_AT_EPOCH":"130","CENTER_NAME":"EARTH","MEAN_ELEMENT_THEORY":"SGP4","ELEMENT_SET_NO":"999","REF_FRAME":"TEME","EPHEMERIS_TYPE":"0","TIME_SYSTEM":"UTC","ARG_OF_PERICENTER":"68.0472","PERIAPSIS":"538.691","NORAD_CAT_ID":"52657","TLE_LINE2":"2 52657  53.2147 211.0660 0001578  68.0472 326.7414 15.08827690  1300","EPOCH":"2022-08-21T22:00:00.999936","BSTAR":"0.00182750000000","OBJECT_TYPE":"PAYLOAD","SITE":"AFETR","MEAN_MOTION_DDOT":"0.0000000000000","RA_OF_ASC_NODE":"211.0660","MEAN_MOTION":"15.08827690","COUNTRY_CODE":"US"},{"LAUNCH_DATE":"2022-05-18","MEAN_MOTION_DOT":"0.00028953","GP_ID":"210694682","SEMIMAJOR_AXIS":"6917.937","ECCENTRICITY":"0.00016940","INCLINATION":"53.2148","ELEMENT_SET_NO":"999","MEAN_ELEMENT_THEORY":"SGP4","REV_AT_EPOCH":"130","CENTER_NAME":"EARTH","DECAY_DATE":null,"RCS_SIZE":"LARGE","TLE_LINE1":"1 52658U 22053C   22233.91667824  .00028953  00000-0  18307-2 0  9991","APOAPSIS":"540.974","MEAN_ANOMALY":"2.7709","PERIOD":"95.439","OBJECT_NAME":"STARLINK-4082","CLASSIFICATION_TYPE":"U","OBJECT_ID":"2022-053C","FILE":"3542671","TLE_LINE2":"2 52658  53.2148 211.0647 0001694  52.0548   2.7709 15.08821359  1307","NORAD_CAT_ID":"52658","BSTAR":"0.00183070000000","OBJECT_TYPE":"PAYLOAD","EPOCH":"2022-08-21T22:00:00.999936","RA_OF_ASC_NODE":"211.0647","MEAN_MOTION_DDOT":"0.0000000000000","SITE":"AFETR","COUNTRY_CODE":"US","MEAN_MOTION":"15.08821359","REF_FRAME":"TEME","EPHEMERIS_TYPE":"0","TIME_SYSTEM":"UTC","PERIAPSIS":"538.630","ARG_OF_PERICENTER":"52.0548"},{"SEMIMAJOR_AXIS":"6917.967","GP_ID":"210693989","ECCENTRICITY":"0.00016500","LAUNCH_DATE":"2022-05-18","MEAN_MOTION_DOT":"0.00029144","ELEMENT_SET_NO":"999","REV_AT_EPOCH":"130","MEAN_ELEMENT_THEORY":"SGP4","CENTER_NAME":"EARTH","INCLINATION":"53.2140","APOAPSIS":"540.974","TLE_LINE1":"1 52659U 22053D   22233.91667824  .00029144  00000-0  18431-2 0  9993","MEAN_ANOMALY":"352.3000","DECAY_DATE":null,"RCS_SIZE":"LARGE","CLASSIFICATION_TYPE":"U","OBJECT_NAME":"STARLINK-3960","FILE":"3542671","OBJECT_ID":"2022-053D","PERIOD":"95.439","OBJECT_TYPE":"PAYLOAD","BSTAR":"0.00184310000000","EPOCH":"2022-08-21T22:00:00.999936","TLE_LINE2":"2 52659  53.2140 211.0647 0001650  57.3290 352.3000 15.08811592  1300","NORAD_CAT_ID":"52659","COUNTRY_CODE":"US","MEAN_MOTION":"15.08811592","RA_OF_ASC_NODE":"211.0647","SITE":"AFETR","MEAN_MOTION_DDOT":"0.0000000000000","EPHEMERIS_TYPE":"0","REF_FRAME":"TEME","PERIAPSIS":"538.691","ARG_OF_PERICENTER":"57.3290","TIME_SYSTEM":"UTC"},{"TIME_SYSTEM":"UTC","PERIAPSIS":"538.448","ARG_OF_PERICENTER":"56.8050","REF_FRAME":"TEME","EPHEMERIS_TYPE":"0","RA_OF_ASC_NODE":"211.0671","SITE":"AFETR","MEAN_MOTION_DDOT":"0.0000000000000","COUNTRY_CODE":"US","MEAN_MOTION":"15.08824432","TLE_LINE2":"2 52660  53.2137 211.0671 0001944  56.8050  37.9643 15.08824432  1305","NORAD_CAT_ID":"52660","OBJECT_TYPE":"PAYLOAD","BSTAR":"0.00176240000000","EPOCH":"2022-08-21T22:00:00.999936","PERIOD":"95.439","CLASSIFICATION_TYPE":"U","OBJECT_NAME":"STARLINK-4081","FILE":"3542671","OBJECT_ID":"2022-053E","DECAY_DATE":null,"RCS_SIZE":"LARGE","TLE_LINE1":"1 52660U 22053E   22233.91667824  .00027860  00000-0  17624-2 0  9991","MEAN_ANOMALY":"37.9643","APOAPSIS":"541.138","INCLINATION":"53.2137","ELEMENT_SET_NO":"999","REV_AT_EPOCH":"130","CENTER_NAME":"EARTH","MEAN_ELEMENT_THEORY":"SGP4","LAUNCH_DATE":"2022-05-18","MEAN_MOTION_DOT":"0.00027860","GP_ID":"210694825","SEMIMAJOR_AXIS":"6917.928","ECCENTRICITY":"0.00019440"},{"ARG_OF_PERICENTER":"62.4825","PERIAPSIS":"538.543","TIME_SYSTEM":"UTC","EPHEMERIS_TYPE":"0","REF_FRAME":"TEME","MEAN_MOTION":"15.08838505","COUNTRY_CODE":"US","SITE":"AFETR","MEAN_MOTION_DDOT":"0.0000000000000","RA_OF_ASC_NODE":"211.0689","EPOCH":"2022-08-21T22:00:00.999936","BSTAR":"0.00171440000000","OBJECT_TYPE":"PAYLOAD","NORAD_CAT_ID":"52661","TLE_LINE2":"2 52661  53.2143 211.0689 0001744  62.4825  52.3200 15.08838505  1309","OBJECT_ID":"2022-053F","FILE":"3542671","OBJECT_NAME":"STARLINK-4042","CLASSIFICATION_TYPE":"U","PERIOD":"95.438","MEAN_ANOMALY":"52.3200","TLE_LINE1":"1 52661U 22053F   22233.91667824  .00027101  00000-0  17144-2 0  9997","APOAPSIS":"540.956","RCS_SIZE":"LARGE","DECAY_DATE":null,"CENTER_NAME":"EARTH","REV_AT_EPOCH":"130","MEAN_ELEMENT_THEORY":"SGP4","ELEMENT_SET_NO":"999","INCLINATION":"53.2143","ECCENTRICITY":"0.00017440","SEMIMAJOR_AXIS":"6917.885","GP_ID":"210694541","MEAN_MOTION_DOT":"0.00027101","LAUNCH_DATE":"2022-05-18"},{"EPHEMERIS_TYPE":"0","REF_FRAME":"TEME","ARG_OF_PERICENTER":"55.5808","PERIAPSIS":"538.219","TIME_SYSTEM":"UTC","EPOCH":"2022-08-21T22:00:00.999936","BSTAR":"0.00157270000000","OBJECT_TYPE":"PAYLOAD","NORAD_CAT_ID":"52662","TLE_LINE2":"2 52662  53.2166 211.0785 0002255  55.5808  99.1902 15.08829106  1309","MEAN_MOTION":"15.08829106","COUNTRY_CODE":"US","SITE":"AFETR","MEAN_MOTION_DDOT":"0.0000000000000","RA_OF_ASC_NODE":"211.0785","TLE_LINE1":"1 52662U 22053G   22233.91667824  .00024823  00000-0  15727-2 0  9991","MEAN_ANOMALY":"99.1902","APOAPSIS":"541.339","RCS_SIZE":"LARGE","DECAY_DATE":null,"OBJECT_ID":"2022-053G","FILE":"3542671","OBJECT_NAME":"STARLINK-4044","CLASSIFICATION_TYPE":"U","PERIOD":"95.438","ECCENTRICITY":"0.00022550","GP_ID":"210694268","SEMIMAJOR_AXIS":"6917.914","MEAN_MOTION_DOT":"0.00024823","LAUNCH_DATE":"2022-05-18","REV_AT_EPOCH":"130","CENTER_NAME":"EARTH","MEAN_ELEMENT_THEORY":"SGP4","ELEMENT_SET_NO":"999","INCLINATION":"53.2166"},{"PERIOD":"95.438","OBJECT_NAME":"STARLINK-4037","CLASSIFICATION_TYPE":"U","OBJECT_ID":"2022-053H","FILE":"3542671","DECAY_DATE":null,"RCS_SIZE":"LARGE","MEAN_ANOMALY":"160.6884","TLE_LINE1":"1 52663U 22053H   22233.91667824  .00024522  00000-0  15537-2 0  9997","APOAPSIS":"540.809","INCLINATION":"53.2162","ELEMENT_SET_NO":"999","REV_AT_EPOCH":"130","CENTER_NAME":"EARTH","MEAN_ELEMENT_THEORY":"SGP4","LAUNCH_DATE":"2022-05-18","MEAN_MOTION_DOT":"0.00024522","SEMIMAJOR_AXIS":"6917.897","GP_ID":"210694403","ECCENTRICITY":"0.00015130","TIME_SYSTEM":"UTC","PERIAPSIS":"538.715","ARG_OF_PERICENTER":"14.0370","REF_FRAME":"TEME","EPHEMERIS_TYPE":"0","RA_OF_ASC_NODE":"211.0743","SITE":"AFETR","MEAN_MOTION_DDOT":"0.0000000000000","COUNTRY_CODE":"US","MEAN_MOTION":"15.08834557","TLE_LINE2":"2 52663  53.2162 211.0743 0001513  14.0370 160.6884 15.08834557  1309","NORAD_CAT_ID":"52663","BSTAR":"0.00155370000000","OBJECT_TYPE":"PAYLOAD","EPOCH":"2022-08-21T22:00:00.999936"},{"ECCENTRICITY":"0.00022650","GP_ID":"210694976","SEMIMAJOR_AXIS":"6917.925","MEAN_MOTION_DOT":"0.00025748","LAUNCH_DATE":"2022-05-18","REV_AT_EPOCH":"130","CENTER_NAME":"EARTH","MEAN_ELEMENT_THEORY":"SGP4","ELEMENT_SET_NO":"999","INCLINATION":"53.2156","TLE_LINE1":"1 52664U 22053J   22233.91667824  .00025748  00000-0  16306-2 0  9994","MEAN_ANOMALY":"80.8342","APOAPSIS":"541.356","RCS_SIZE":"LARGE","DECAY_DATE":null,"FILE":"3542671","OBJECT_ID":"2022-053J","CLASSIFICATION_TYPE":"U","OBJECT_NAME":"STARLINK-4070","PERIOD":"95.438","EPOCH":"2022-08-21T22:00:00.999936","OBJECT_TYPE":"PAYLOAD","BSTAR":"0.00163060000000","NORAD_CAT_ID":"52664","TLE_LINE2":"2 52664  53.2156 211.0736 0002265  53.9454  80.8342 15.08825567  1308","MEAN_MOTION":"15.08825567","COUNTRY_CODE":"US","MEAN_MOTION_DDOT":"0.0000000000000","SITE":"AFETR","RA_OF_ASC_NODE":"211.0736","EPHEMERIS_TYPE":"0","REF_FRAME":"TEME","ARG_OF_PERICENTER":"53.9454","PERIAPSIS":"538.223","TIME_SYSTEM":"UTC"},{"INCLINATION":"53.2179","ELEMENT_SET_NO":"999","CENTER_NAME":"EARTH","REV_AT_EPOCH":"130","MEAN_ELEMENT_THEORY":"SGP4","LAUNCH_DATE":"2022-05-18","MEAN_MOTION_DOT":"0.00026378","SEMIMAJOR_AXIS":"6917.893","GP_ID":"210694128","ECCENTRICITY":"0.00024430","PERIOD":"95.438","CLASSIFICATION_TYPE":"U","OBJECT_NAME":"STARLINK-4064","FILE":"3542671","OBJECT_ID":"2022-053K","DECAY_DATE":null,"RCS_SIZE":"LARGE","TLE_LINE1":"1 52665U 22053K   22233.91667824  .00026378  00000-0  16694-2 0  9995","APOAPSIS":"541.448","MEAN_ANOMALY":"185.5059","RA_OF_ASC_NODE":"211.0694","MEAN_MOTION_DDOT":"0.0000000000000","SITE":"AFETR","COUNTRY_CODE":"US","MEAN_MOTION":"15.08836027","TLE_LINE2":"2 52665  53.2179 211.0694 0002443  49.3086 185.5059 15.08836027  1306","NORAD_CAT_ID":"52665","OBJECT_TYPE":"PAYLOAD","BSTAR":"0.00166940000000","EPOCH":"2022-08-21T22:00:00.999936","TIME_SYSTEM":"UTC","PERIAPSIS":"538.067","ARG_OF_PERICENTER":"49.3086","REF_FRAME":"TEME","EPHEMERIS_TYPE":"0"},{"TLE_LINE1":"1 52666U 22053L   22233.91667824  .00024877  00000-0  15756-2 0  9996","MEAN_ANOMALY":"144.4938","APOAPSIS":"541.532","RCS_SIZE":"LARGE","DECAY_DATE":null,"FILE":"3542671","OBJECT_ID":"2022-053L","CLASSIFICATION_TYPE":"U","OBJECT_NAME":"STARLINK-4079","PERIOD":"95.438","ECCENTRICITY":"0.00025810","SEMIMAJOR_AXIS":"6917.881","GP_ID":"210694683","MEAN_MOTION_DOT":"0.00024877","LAUNCH_DATE":"2022-05-18","REV_AT_EPOCH":"130","CENTER_NAME":"EARTH","MEAN_ELEMENT_THEORY":"SGP4","ELEMENT_SET_NO":"999","INCLINATION":"53.2157","EPHEMERIS_TYPE":"0","REF_FRAME":"TEME","ARG_OF_PERICENTER":"50.3154","PERIAPSIS":"537.961","TIME_SYSTEM":"UTC","EPOCH":"2022-08-21T22:00:00.999936","OBJECT_TYPE":"PAYLOAD","BSTAR":"0.00157560000000","NORAD_CAT_ID":"52666","TLE_LINE2":"2 52666  53.2157 211.0769 0002581  50.3154 144.4938 15.08839679  1303","MEAN_MOTION":"15.08839679","COUNTRY_CODE":"US","SITE":"AFETR","MEAN_MOTION_DDOT":"0.0000000000000","RA_OF_ASC_NODE":"211.0769"}];
